OBJECT_NAME,OBJECT_ID,EPOCH,MEAN_MOTION,ECCENTRICITY,INCLINATION,RA_OF_ASC_NODE,ARG_OF_PERICENTER,MEAN_ANOMALY,EPHEMERIS_TYPE,CLASSIFICATION_TYPE,NORAD_CAT_ID,ELEMENT_SET_NO,REV_AT_EPOCH,BSTAR,MEAN_MOTION_DOT,MEAN_MOTION_DDOT
EUTELSAT HOTBIRD 13F,2022-134A,2026-07-12T15:17:04.213248,1.00272120,.000185,0.0550,285.8744,67.0893,179.8439,0,U,54048,999,1363,0,.87E-6,0
LDPE-2,2022-144A,2026-07-12T08:34:38.610912,1.00542803,.00023868,5.6713,63.4395,110.7900,111.3522,0,U,54219,999,1209,0,.4E-6,0
EUTELSAT HOTBIRD 13G,2022-146A,2026-07-12T15:17:04.213248,1.00271518,.000222,0.0130,241.1621,303.8857,347.7585,0,U,54225,999,772,0,0,0
ZHONGXING-19,2022-148A,2026-07-12T19:25:11.498304,1.00270487,.0002926,0.0135,332.3106,166.9593,245.9068,0,U,54230,999,1363,0,-.82E-6,0
GALAXY 31 (G-31),2022-153A,2026-07-12T18:04:00.984288,1.00270052,.0000936,0.0272,65.0543,56.5708,319.0141,0,U,54243,999,738,0,0,0
GALAXY 32 (G-32),2022-153B,2026-07-12T11:22:04.800288,1.00269935,.0001429,0.0126,14.5077,31.8370,323.5385,0,U,54244,999,1339,0,-.173E-5,0
EUTELSAT 10B,2022-157A,2026-07-12T20:24:07.799328,1.00267708,.0001606,0.0595,95.5779,16.3618,134.8229,0,U,54259,999,1328,0,.67E-6,0
GALAXY 35 (G-35),2022-170A,2026-07-12T19:54:46.162080,1.00268935,.0001872,0.0231,58.6837,58.7162,18.9064,0,U,54741,999,1315,0,0,0
GALAXY 36 (G-36),2022-170B,2026-07-12T19:55:46.065792,1.00270917,.0002341,0.0298,108.9509,351.1655,40.5435,0,U,54742,999,1303,0,-.186E-5,0
METEOSAT-12 (MTG-I1),2022-170C,2026-07-12T18:38:34.478880,1.00267154,.0003772,0.7226,19.2711,82.5945,108.1551,0,U,54743,999,1323,0,-.9E-7,0
SHIJIAN-23 (SJ-23),2023-002A,2026-07-12T16:47:49.008192,1.00077905,.0003423,3.7803,77.9909,270.0048,325.4010,0,U,55131,999,1276,0,-.35E-5,0
APSTAR-6E,2023-005A,2026-07-12T15:51:36.607968,1.00269401,.0001903,0.0619,237.7443,332.5772,92.1502,0,U,55239,999,1894,0,-.318E-5,0
USA 342,2023-008A,2026-07-09T06:55:38.597952,1.00269378,.0000262,0.0052,352.2306,7.3445,55.4773,0,U,55263,999,1273,0,0,0
LDPE-3A,2023-008B,2026-07-12T19:20:41.926848,0.99150786,.0001506,2.4121,81.3469,79.8149,207.1349,0,U,55264,999,1206,0,-.296E-5,0
ELEKTRO-L 4,2023-016A,2026-07-12T17:34:18.425280,1.00272440,.0001265,0.1097,128.0427,48.7907,183.1570,0,U,55506,999,1258,0,-.58E-6,0
AMAZONAS NEXUS,2023-017A,2026-07-12T20:03:52.788096,1.00268834,.0004403,0.0338,39.8202,45.0151,85.8570,0,U,55508,999,730,0,-.283E-5,0
ZHONGXING-26,2023-023A,2026-07-12T12:23:44.685888,1.00290824,.00031696,0.0650,71.3409,16.2999,153.8117,0,U,55686,999,1248,0,-.352E-5,0
LUCH-5X (OLYMP-K 2),2023-031A,2026-07-12T18:11:38.812704,1.00267834,.0000862,0.0304,94.0667,154.5307,16.9318,0,U,55841,999,1219,0,.34E-6,0
GAOFEN-13 02,2023-036A,2026-07-12T19:20:56.904288,1.00274718,.0003714,1.0269,4.2654,336.0308,28.8390,0,U,55912,999,1234,0,-.219E-5,0
SES-18,2023-038A,2026-07-12T14:43:52.395168,1.00271253,.0000736,0.0478,263.3391,310.8932,194.1470,0,U,55970,999,1235,0,-.101E-5,0
SES-19,2023-038B,2026-07-12T14:34:53.254848,1.00272950,.0001599,0.0178,325.4225,157.6717,251.2370,0,U,55971,999,1234,0,.88E-6,0
INTELSAT 40E (IS-40E),2023-052A,2026-07-12T14:47:22.060320,1.00269902,.0002235,0.0218,58.8876,87.5329,274.9396,0,U,56174,999,1207,0,0,0
VIASAT-3 F1,2023-060A,2026-07-12T14:47:59.500032,1.00270234,.0001019,0.0161,22.0903,87.2892,314.1502,0,U,56370,999,1168,0,0,0
ARCTURUS,2023-060B,2026-07-12T19:02:21.698016,1.00595683,.0000852,2.8384,79.6236,132.2678,100.5997,0,U,56371,999,1171,0,-.326E-5,0
GS-1,2023-060C,2026-07-12T19:04:06.019104,1.00267433,.0003443,2.7895,79.5303,281.4727,305.0434,0,U,56372,999,779,0,-.226E-5,0
BEIDOU-3 G4,2023-066A,2026-07-12T21:01:13.643904,1.00273217,.0004869,0.4624,338.2363,188.1053,219.7778,0,U,56564,999,1165,0,-.281E-5,0
ARABSAT-7B (BADR-8),2023-075A,2026-07-12T20:07:50.663712,1.00270991,.000332,0.0748,31.3924,359.1009,228.1873,0,U,56757,999,1137,0,.144E-5,0
NVS-01 (IRNSS-1J),2023-076A,2026-07-12T17:32:56.461056,1.00265764,.0003551,2.1080,243.1996,7.3746,72.7548,0,U,56759,999,1137,0,-.335E-5,0
NUSANTARA TIGA (SATRIA),2023-086A,2026-07-12T19:20:19.462848,1.00267672,.0002231,0.0349,10.0792,330.1018,26.5911,0,U,57045,999,1001,0,-.236E-5,0
H2SAT (HEINRICH HERTZ),2023-093A,2026-07-12T18:38:49.456320,1.00269716,.0000355,0.0178,97.4215,48.1625,65.4816,0,U,57213,999,1117,0,.1E-7,0
SYRACUSE 4B,2023-093B,2026-07-12T15:11:27.249792,1.00271053,.0000535,0.0294,52.2361,194.0385,265.6606,0,U,57214,999,722,0,0,0
JUPITER 3 (ECHOSTAR 24),2023-108A,2026-07-12T10:59:31.898112,1.00274096,.0001264,0.0223,42.4676,73.5537,243.9918,0,U,57479,999,1089,0,0,0
