EUTELSAT HOTBIRD 13F    
1 54048U 22134A   26193.63685432  .00000087  00000+0  00000+0 0  9994
2 54048   0.0550 285.8744 0001850  67.0893 179.8439  1.00272120 13637
LDPE-2                  
1 54219U 22144A   26193.35739133  .00000040  00000+0  00000+0 0  9991
2 54219   5.6713  63.4395 0002386 110.7900 111.3522  1.00542803 12092
EUTELSAT HOTBIRD 13G    
1 54225U 22146A   26193.63685432  .00000000  00000+0  00000+0 0  9999
2 54225   0.0130 241.1621 0002220 303.8857 347.7585  1.00271518  7721
ZHONGXING-19            
1 54230U 22148A   26193.80916086 -.00000082  00000+0  00000+0 0  9999
2 54230   0.0135 332.3106 0002926 166.9593 245.9068  1.00270487 13637
GALAXY 31 (G-31)        
1 54243U 22153A   26193.75278917  .00000000  00000+0  00000+0 0  9996
2 54243   0.0272  65.0543 0000936  56.5708 319.0141  1.00270052  7387
GALAXY 32 (G-32)        
1 54244U 22153B   26193.47366667 -.00000173  00000+0  00000+0 0  9998
2 54244   0.0126  14.5077 0001429  31.8370 323.5385  1.00269935 13392
EUTELSAT 10B            
1 54259U 22157A   26193.85009027  .00000067  00000+0  00000+0 0  9995
2 54259   0.0595  95.5779 0001606  16.3618 134.8229  1.00267708 13280
GALAXY 35 (G-35)        
1 54741U 22170A   26193.82970095  .00000000  00000+0  00000+0 0  9992
2 54741   0.0231  58.6837 0001872  58.7162  18.9064  1.00268935 13155
GALAXY 36 (G-36)        
1 54742U 22170B   26193.83039428 -.00000186  00000+0  00000+0 0  9996
2 54742   0.0298 108.9509 0002341 351.1655  40.5435  1.00270917 13036
METEOSAT-12 (MTG-I1)    
1 54743U 22170C   26193.77678795 -.00000009  00000+0  00000+0 0  9990
2 54743   0.7226  19.2711 0003772  82.5945 108.1551  1.00267154 13231
SHIJIAN-23 (SJ-23)      
1 55131U 23002A   26193.69987278 -.00000350  00000+0  00000+0 0  9996
2 55131   3.7803  77.9909 0003423 270.0048 325.4010  1.00077905 12762
APSTAR-6E               
1 55239U 23005A   26193.66084037 -.00000318  00000+0  00000+0 0  9990
2 55239   0.0619 237.7443 0001903 332.5772  92.1502  1.00269401 18948
USA 342                 
1 55263U 23008A   26190.28864118  .00000000  00000+0  00000+0 0  9998
2 55263   0.0052 352.2306 0000262   7.3445  55.4773  1.00269378 12734
LDPE-3A                 
1 55264U 23008B   26193.80604082 -.00000296  00000+0  00000+0 0  9990
2 55264   2.4121  81.3469 0001506  79.8149 207.1349  0.99150786 12065
ELEKTRO-L 4             
1 55506U 23016A   26193.73215770 -.00000058  00000+0  00000+0 0  9998
2 55506   0.1097 128.0427 0001265  48.7907 183.1570  1.00272440 12584
AMAZONAS NEXUS          
1 55508U 23017A   26193.83602764 -.00000283  00000+0  00000+0 0  9995
2 55508   0.0338  39.8202 0004403  45.0151  85.8570  1.00268834  7305
ZHONGXING-26            
1 55686U 23023A   26193.51648942 -.00000352  00000+0  00000+0 0  9999
2 55686   0.0650  71.3409 0003169  16.2999 153.8117  1.00290824 12489
LUCH-5X (OLYMP-K 2)     
1 55841U 23031A   26193.75808811  .00000034  00000+0  00000+0 0  9996
2 55841   0.0304  94.0667 0000862 154.5307  16.9318  1.00267834 12197
GAOFEN-13 02            
1 55912U 23036A   26193.80621417 -.00000219  00000+0  00000+0 0  9997
2 55912   1.0269   4.2654 0003714 336.0308  28.8390  1.00274718 12341
SES-18                  
1 55970U 23038A   26193.61380087 -.00000101  00000+0  00000+0 0  9997
2 55970   0.0478 263.3391 0000736 310.8932 194.1470  1.00271253 12354
SES-19                  
1 55971U 23038B   26193.60756082  .00000088  00000+0  00000+0 0  9992
2 55971   0.0178 325.4225 0001599 157.6717 251.2370  1.00272950 12342
INTELSAT 40E (IS-40E)   
1 56174U 23052A   26193.61622755  .00000000  00000+0  00000+0 0  9998
2 56174   0.0218  58.8876 0002235  87.5329 274.9396  1.00269902 12073
VIASAT-3 F1             
1 56370U 23060A   26193.61666088  .00000000  00000+0  00000+0 0  9992
2 56370   0.0161  22.0903 0001019  87.2892 314.1502  1.00270234 11685
ARCTURUS                
1 56371U 23060B   26193.79330669 -.00000326  00000+0  00000+0 0  9997
2 56371   2.8384  79.6236 0000852 132.2678 100.5997  1.00595683 11714
GS-1                    
1 56372U 23060C   26193.79451411 -.00000226  00000+0  00000+0 0  9996
2 56372   2.7895  79.5303 0003443 281.4727 305.0434  1.00267433  7796
BEIDOU-3 G4             
1 56564U 23066A   26193.87585236 -.00000281  00000+0  00000+0 0  9998
2 56564   0.4624 338.2363 0004869 188.1053 219.7778  1.00273217 11652
ARABSAT-7B (BADR-8)     
1 56757U 23075A   26193.83878083  .00000144  00000+0  00000+0 0  9990
2 56757   0.0748  31.3924 0003320 359.1009 228.1873  1.00270991 11370
NVS-01 (IRNSS-1J)       
1 56759U 23076A   26193.73120904 -.00000335  00000+0  00000+0 0  9997
2 56759   2.1080 243.1996 0003551   7.3746  72.7548  1.00265764 11376
NUSANTARA TIGA (SATRIA) 
1 57045U 23086A   26193.80578082 -.00000236  00000+0  00000+0 0  9999
2 57045   0.0349  10.0792 0002231 330.1018  26.5911  1.00267672 10019
H2SAT (HEINRICH HERTZ)  
1 57213U 23093A   26193.77696130  .00000001  00000+0  00000+0 0  9994
2 57213   0.0178  97.4215 0000355  48.1625  65.4816  1.00269716 11175
SYRACUSE 4B             
1 57214U 23093B   26193.63295428  .00000000  00000+0  00000+0 0  9994
2 57214   0.0294  52.2361 0000535 194.0385 265.6606  1.00271053  7229
JUPITER 3 (ECHOSTAR 24) 
1 57479U 23108A   26193.45800808  .00000000  00000+0  00000+0 0  9998
2 57479   0.0223  42.4676 0001264  73.5537 243.9918  1.00274096 10896
